     2.10           G: GLONASS NAV DATA                     RINEX VERSION / TYPE
teqc  2015Jun23                         20210412 04:59:27UTCPGM / RUN BY / DATE
Linux 2.4.21-27.ELsmp|Opteron|gcc -static|Linux x86_64|=+   COMMENT
  2021     3    28    7.916241884232D-09                    CORR TO SYSTEM TIME
                                                            END OF HEADER
 7 21  3 29 11 15  0.0-4.256144165993D-05-0.000000000000D+00 3.960000000000D+04
   -5.209538085938D+03-2.027003288269D+00 0.000000000000D+00 0.000000000000D+00
    1.580460205078D+04 1.712124824524D+00-1.862645149231D-09 5.000000000000D+00
   -1.930777197266D+04 1.940193176270D+00 2.793967723846D-09 0.000000000000D+00
 9 21  3 29 11 15  0.0-1.473259180784D-05 1.818989403546D-12 3.960000000000D+04
   -5.921352539062D+03-3.089179992676D-01 0.000000000000D+00 0.000000000000D+00
    1.755832324219D+04-2.378931045532D+00-1.862645149231D-09-2.000000000000D+00
   -1.748363183594D+04-2.288908004761D+00 1.862645149231D-09 0.000000000000D+00
21 21  3 29 11 15  0.0-1.978697255254D-04-2.728484105319D-12 3.960000000000D+04
    6.944761718750D+03-2.609063148499D+00 3.725290298462D-09 0.000000000000D+00
    1.294764990234D+04-1.174422264099D+00-0.000000000000D+00 4.000000000000D+00
    2.085797314453D+04 1.596011161804D+00-1.862645149231D-09 0.000000000000D+00
10 21  3 29 11 45  0.0-6.753671914339D-05 0.000000000000D+00 4.140000000000D+04
    2.534619628906D+03-2.148427963257D-01 1.862645149231D-09 0.000000000000D+00
    2.371832568359D+04-1.239326477051D+00-1.862645149231D-09-7.000000000000D+00
   -9.153249023438D+03-3.268621444702D+00 9.313225746155D-10 0.000000000000D+00
21 21  3 29 11 45  0.0-1.978743821383D-04-2.728484105319D-12 4.140000000000D+04
    1.833980468750D+03-3.025853157043D+00 1.862645149231D-09 0.000000000000D+00
    1.111625244141D+04-8.319053649902D-01-9.313225746155D-10 4.000000000000D+00
    2.288789746094D+04 6.447849273682D-01-2.793967723846D-09 0.000000000000D+00
 6 21  3 29 11 45  0.0 1.952825114131D-04 0.000000000000D+00 4.140000000000D+04
   -1.769625878906D+04 1.985177993774D-01-2.793967723846D-09 0.000000000000D+00
    1.836090039062D+04-2.705574035645D-03-3.725290298462D-09-4.000000000000D+00
    9.962001953125D+02 3.555307388306D+00-0.000000000000D+00 0.000000000000D+00
 7 21  3 29 11 45  0.0-4.256144165993D-05-0.000000000000D+00 4.140000000000D+04
   -8.266987304688D+03-1.359074592590D+00-0.000000000000D+00 0.000000000000D+00
    1.880346777344D+04 1.573902130127D+00-2.793967723846D-09 5.000000000000D+00
   -1.511294677734D+04 2.690255165100D+00 1.862645149231D-09 0.000000000000D+00
 9 21  3 29 11 45  0.0-1.472979784012D-05 1.818989403546D-12 4.140000000000D+04
   -6.886759277344D+03-7.748403549194D-01-9.313225746155D-10 0.000000000000D+00
    1.289589404297D+04-2.754678726196D+00-1.862645149231D-09-2.000000000000D+00
   -2.087204687500D+04-1.451593399048D+00 2.793967723846D-09 0.000000000000D+00
 8 21  3 29 11 45  0.0-5.821324884892D-05-9.094947017729D-13 4.296000000000D+04
    5.780294433594D+03-2.179236412048D+00 1.862645149231D-09 0.000000000000D+00
    9.634525390625D+03 2.265920639038D+00-9.313225746155D-10 6.000000000000D+00
   -2.284292285156D+04 4.014387130737D-01 2.793967723846D-09 0.000000000000D+00
10 21  3 29 12 15  0.0-6.753578782082D-05 0.000000000000D+00 4.320000000000D+04
    1.730554199219D+03-7.018146514893D-01 0.000000000000D+00 0.000000000000D+00
    2.088527685547D+04-1.871342658997D+00-1.862645149231D-09-7.000000000000D+00
   -1.460887744141D+04-2.753984451294D+00 1.862645149231D-09 0.000000000000D+00
 8 21  3 29 12 15  0.0-5.821511149406D-05-0.000000000000D+00 4.320000000000D+04
    2.268884765625D+03-1.697402000427D+00 9.313225746155D-10 0.000000000000D+00
    1.385682080078D+04 2.380527496338D+00-1.862645149231D-09 6.000000000000D+00
   -2.124166210938D+04 1.366007804871D+00 2.793967723846D-09 0.000000000000D+00
 6 21  3 29 12 15  0.0 1.952834427357D-04 0.000000000000D+00 4.320000000000D+04
   -1.686588085938D+04 6.874036788940D-01-3.725290298462D-09 0.000000000000D+00
    1.771423388672D+04-7.336654663086D-01-2.793967723846D-09-4.000000000000D+00
    7.274694824219D+03 3.375543594360D+00-9.313225746155D-10 0.000000000000D+00
 7 21  3 29 12 15  0.0-4.256144165993D-05 0.000000000000D+00 4.320000000000D+04
   -1.009651806641D+04-6.815509796143D-01-1.862645149231D-09 0.000000000000D+00
    2.130647656250D+04 1.163602828979D+00-2.793967723846D-09 5.000000000000D+00
   -9.748589843750D+03 3.231310844421D+00 9.313225746155D-10 0.000000000000D+00
 9 21  3 29 12 15  0.0-1.472700387239D-05 1.818989403546D-12 4.320000000000D+04
   -8.719103515625D+03-1.254461288452D+00-1.862645149231D-09 0.000000000000D+00
    7.818176757812D+03-2.837470054626D+00-9.313225746155D-10-2.000000000000D+00
   -2.264219335938D+04-5.026063919067D-01 2.793967723846D-09 0.000000000000D+00
10 21  3 29 12 45  0.0-6.753578782082D-05 0.000000000000D+00 4.500000000000D+04
   -4.702734375000D+01-1.279974937439D+00-0.000000000000D+00 0.000000000000D+00
    1.713414355469D+04-2.250315666199D+00-1.862645149231D-09-7.000000000000D+00
   -1.893990185547D+04-2.027074813843D+00 2.793967723846D-09 0.000000000000D+00
 8 21  3 29 12 45  0.0-5.821604281664D-05-0.000000000000D+00 4.500000000000D+04
   -2.723125000000D+02-1.119238853455D+00-0.000000000000D+00 0.000000000000D+00
    1.803271875000D+04 2.210495948792D+00-1.862645149231D-09 6.000000000000D+00
   -1.798964746094D+04 2.223614692688D+00 1.862645149231D-09 0.000000000000D+00
 6 21  3 29 12 45  0.0 1.952853053808D-04 0.000000000000D+00 4.500000000000D+04
   -1.536734960938D+04 9.348373413086D-01-3.725290298462D-09 0.000000000000D+00
    1.568768066406D+04-1.517571449280D+00-1.862645149231D-09-4.000000000000D+00
    1.299127490234D+04 2.934987068176D+00-1.862645149231D-09 0.000000000000D+00
 7 21  3 29 12 45  0.0-4.256144165993D-05 0.000000000000D+00 4.500000000000D+04
   -1.078020068359D+04-1.026897430420D-01-2.793967723846D-09 0.000000000000D+00
    2.285054296875D+04 5.181646347046D-01-2.793967723846D-09 5.000000000000D+00
   -3.630778808594D+03 3.522106170654D+00 0.000000000000D+00 0.000000000000D+00
12 21  3 29 12 45  0.0 2.164971083403D-04 3.637978807092D-12 4.578000000000D+04
    1.620719824219D+04 1.087860107422D+00 4.656612873077D-09 0.000000000000D+00
    1.407581201172D+04 1.547651290894D+00-1.862645149231D-09-1.000000000000D+00
    1.381900634766D+04-2.854150772095D+00-9.313225746155D-10 0.000000000000D+00
21 21  3 29 12 45  0.0-1.978846266866D-04-2.728484105319D-12 4.638000000000D+04
   -9.325774414062D+03-2.964130401611D+00-1.862645149231D-09 0.000000000000D+00
    9.802222167969D+03 1.111822128296D-01-9.313225746155D-10 4.000000000000D+00
    2.162070947266D+04-1.330652236938D+00-2.793967723846D-09 0.000000000000D+00
10 21  3 29 13 15  0.0-6.753578782082D-05-0.000000000000D+00 4.680000000000D+04
   -2.868452148438D+03-1.843229293823D+00-1.862645149231D-09 0.000000000000D+00
    1.295660009766D+04-2.343396186829D+00-9.313225746155D-10-7.000000000000D+00
   -2.181205566406D+04-1.143422126770D+00 2.793967723846D-09 0.000000000000D+00
12 21  3 29 13 15  0.0 2.165026962757D-04 3.637978807092D-12 4.680000000000D+04
    1.796240966797D+04 8.188095092773D-01 3.725290298462D-09 0.000000000000D+00
    1.617098095703D+04 7.803363800049D-01-2.793967723846D-09-1.000000000000D+00
    8.214788574219D+03-3.332448959351D+00-0.000000000000D+00 0.000000000000D+00
 6 21  3 29 13 15  0.0 1.952862367034D-04 0.000000000000D+00 4.680000000000D+04
   -1.365466650391D+04 9.267864227295D-01-3.725290298462D-09 0.000000000000D+00
    1.228717431641D+04-2.241345405579D+00-9.313225746155D-10-4.000000000000D+00
    1.770415673828D+04 2.267537117004D+00-2.793967723846D-09 0.000000000000D+00
 7 21  3 29 13 15  0.0-4.256051033735D-05 0.000000000000D+00 4.680000000000D+04
   -1.057834472656D+04 2.904663085938D-01-3.725290298462D-09 0.000000000000D+00
    2.307625537109D+04-2.856912612915D-01-1.862645149231D-09 5.000000000000D+00
    2.767350097656D+03 3.540873527527D+00-9.313225746155D-10 0.000000000000D+00
 8 21  3 29 13 15  0.0-5.821697413921D-05-0.000000000000D+00 4.680000000000D+04
   -1.769082519531D+03-5.553512573242D-01-1.862645149231D-09 0.000000000000D+00
    2.164297851562D+04 1.755973815918D+00-2.793967723846D-09 6.000000000000D+00
   -1.334106298828D+04 2.907668113708D+00 1.862645149231D-09 0.000000000000D+00
21 21  3 29 13 15  0.0-1.978892832994D-04-2.728484105319D-12 4.683000000000D+04
   -1.426731347656D+04-2.481833457947D+00-3.725290298462D-09 0.000000000000D+00
    1.036903369141D+04 4.942245483398D-01-0.000000000000D+00 4.000000000000D+00
    1.842039599609D+04-2.202208518982D+00-2.793967723846D-09 0.000000000000D+00
 1 21  3 29 13 15  0.0 7.708650082350D-05 0.000000000000D+00 4.809000000000D+04
    7.390736816406D+03-1.013170242310D+00 9.313225746155D-10 0.000000000000D+00
    1.056098828125D+04 2.838475227356D+00-1.862645149231D-09 1.000000000000D+00
   -2.200329296875D+04 1.023122787476D+00 2.793967723846D-09 0.000000000000D+00
10 21  3 29 13 45  0.0-6.753578782082D-05-0.000000000000D+00 4.860000000000D+04
   -6.608534667969D+03-2.283504486084D+00-2.793967723846D-09 0.000000000000D+00
    8.862856933594D+03-2.163033485413D+00 0.000000000000D+00-7.000000000000D+00
   -2.300261425781D+04-1.706619262695D-01 2.793967723846D-09 0.000000000000D+00
 1 21  3 29 13 45  0.0 7.708743214607D-05 0.000000000000D+00 4.860000000000D+04
    6.016747070312D+03-5.162906646729D-01-9.313225746155D-10 0.000000000000D+00
    1.549909960938D+04 2.598698616028D+00-1.862645149231D-09 1.000000000000D+00
   -1.933423974609D+04 1.923254966736D+00 1.862645149231D-09 0.000000000000D+00
 7 21  3 29 13 45  0.0-4.256051033735D-05 0.000000000000D+00 4.860000000000D+04
   -9.877866699219D+03 4.461908340454D-01-4.656612873077D-09 0.000000000000D+00
    2.178936962891D+04-1.143651008606D+00-9.313225746155D-10 5.000000000000D+00
    8.952250000000D+03 3.286816596985D+00-1.862645149231D-09 0.000000000000D+00
